{
  "norad_id": 65588,
  "name": "NUSANTARA LIMA (NUSANTARA 5)",
  "history": [
    {
      "epoch": "2026-03-28T13:36:34.568928Z",
      "apogee_km": 35788.41862002461,
      "perigee_km": 35784.64066589341,
      "latitude_deg": 0.02093394814649156,
      "longitude_deg": 112.8709719589383,
      "height_km": 35786.80702633115,
      "semi_major_axis_km": 42164.66664295901,
      "eccentricity": 4.48e-05,
      "inclination_deg": 0.0461,
      "raan_deg": 36.4329,
      "arg_perigee_deg": 352.1545,
      "mean_anomaly_deg": 114.3851,
      "mean_motion_rev_day": 1.00272018
    },
    {
      "epoch": "2026-03-29T01:35:25.848096Z",
      "apogee_km": 35789.54645357857,
      "perigee_km": 35783.03626583984,
      "latitude_deg": -0.029281461105948106,
      "longitude_deg": 112.85877903613196,
      "height_km": 35785.00387768872,
      "semi_major_axis_km": 42164.42835970921,
      "eccentricity": 7.72e-05,
      "inclination_deg": 0.053,
      "raan_deg": 37.1406,
      "arg_perigee_deg": 2.4587,
      "mean_anomaly_deg": 283.5801,
      "mean_motion_rev_day": 1.00272868
    },
    {
      "epoch": "2026-03-29T19:12:38.618208Z",
      "apogee_km": 35789.47759759924,
      "perigee_km": 35784.156380405824,
      "latitude_deg": 0.021264538408510943,
      "longitude_deg": 112.86160910829517,
      "height_km": 35788.91612276536,
      "semi_major_axis_km": 42164.95398900253,
      "eccentricity": 6.31e-05,
      "inclination_deg": 0.0445,
      "raan_deg": 30.6234,
      "arg_perigee_deg": 6.3232,
      "mean_anomaly_deg": 191.2561,
      "mean_motion_rev_day": 1.00270993
    },
    {
      "epoch": "2026-03-30T10:06:17.405856Z",
      "apogee_km": 35789.82825117094,
      "perigee_km": 35784.13933307367,
      "latitude_deg": -0.0017420338141723136,
      "longitude_deg": 112.86961957032928,
      "height_km": 35785.00036328841,
      "semi_major_axis_km": 42165.12079212231,
      "eccentricity": 6.746e-05,
      "inclination_deg": 0.0537,
      "raan_deg": 39.3832,
      "arg_perigee_deg": 354.259,
      "mean_anomaly_deg": 58.5849,
      "mean_motion_rev_day": 1.00270398
    },
    {
      "epoch": "2026-03-30T15:14:20.428224Z",
      "apogee_km": 35788.395861701574,
      "perigee_km": 35784.34047959426,
      "latitude_deg": 0.026871907642037136,
      "longitude_deg": 112.86985793666732,
      "height_km": 35787.12817136281,
      "semi_major_axis_km": 42164.50517064792,
      "eccentricity": 4.809e-05,
      "inclination_deg": 0.0519,
      "raan_deg": 39.5071,
      "arg_perigee_deg": 1.4478,
      "mean_anomaly_deg": 128.4987,
      "mean_motion_rev_day": 1.00272594
    },
    {
      "epoch": "2026-03-31T13:25:38.866368Z",
      "apogee_km": 35784.07510471418,
      "perigee_km": 35781.95018277214,
      "latitude_deg": -0.005776116105445605,
      "longitude_deg": 112.89232948666321,
      "height_km": 35782.552408756696,
      "semi_major_axis_km": 42161.14964374316,
      "eccentricity": 2.52e-05,
      "inclination_deg": 0.0152,
      "raan_deg": 113.4855,
      "arg_perigee_deg": 122.6967,
      "mean_anomaly_deg": 267.0416,
      "mean_motion_rev_day": 1.00284565
    },
    {
      "epoch": "2026-04-01T17:35:38.643360Z",
      "apogee_km": 35788.581087823266,
      "perigee_km": 35784.904310313505,
      "latitude_deg": 0.010892028091020887,
      "longitude_deg": 112.87021229103757,
      "height_km": 35787.4516075593,
      "semi_major_axis_km": 42164.87969906839,
      "eccentricity": 4.36e-05,
      "inclination_deg": 0.0458,
      "raan_deg": 31.7221,
      "arg_perigee_deg": 43.6389,
      "mean_anomaly_deg": 131.4935,
      "mean_motion_rev_day": 1.00271258
    },
    {
      "epoch": "2026-04-02T14:28:38.576064Z",
      "apogee_km": 35789.26915817726,
      "perigee_km": 35784.79206068049,
      "latitude_deg": -0.005507097700881183,
      "longitude_deg": 112.86521438172281,
      "height_km": 35786.052114732156,
      "semi_major_axis_km": 42165.16760942888,
      "eccentricity": 5.309e-05,
      "inclination_deg": 0.046,
      "raan_deg": 34.1048,
      "arg_perigee_deg": 49.2281,
      "mean_anomaly_deg": 77.6244,
      "mean_motion_rev_day": 1.00270231
    },
    {
      "epoch": "2026-04-02T21:57:45.300960Z",
      "apogee_km": 35789.40818975088,
      "perigee_km": 35784.73881433988,
      "latitude_deg": 0.019487997958787882,
      "longitude_deg": 112.85577811462989,
      "height_km": 35788.85061202873,
      "semi_major_axis_km": 42165.21050204538,
      "eccentricity": 5.537e-05,
      "inclination_deg": 0.0458,
      "raan_deg": 35.7621,
      "arg_perigee_deg": 47.9509,
      "mean_anomaly_deg": 189.8282,
      "mean_motion_rev_day": 1.00270078
    },
    {
      "epoch": "2026-04-03T13:21:49.159872Z",
      "apogee_km": 35789.81168755147,
      "perigee_km": 35784.56632099654,
      "latitude_deg": -0.010921261862764051,
      "longitude_deg": 112.8565151913614,
      "height_km": 35785.36033730344,
      "semi_major_axis_km": 42165.32600427401,
      "eccentricity": 6.22e-05,
      "inclination_deg": 0.0454,
      "raan_deg": 38.3408,
      "arg_perigee_deg": 47.4203,
      "mean_anomaly_deg": 59.4239,
      "mean_motion_rev_day": 1.00269666
    },
    {
      "epoch": "2026-04-04T20:10:06.233952Z",
      "apogee_km": 35790.31141154545,
      "perigee_km": 35782.19898248675,
      "latitude_deg": 0.01851941187524702,
      "longitude_deg": 112.86879889231818,
      "height_km": 35789.713341555114,
      "semi_major_axis_km": 42164.3921970161,
      "eccentricity": 9.62e-05,
      "inclination_deg": 0.0436,
      "raan_deg": 42.7787,
      "arg_perigee_deg": 13.999,
      "mean_anomaly_deg": 191.767,
      "mean_motion_rev_day": 1.00272997
    },
    {
      "epoch": "2026-04-05T13:50:01.306464Z",
      "apogee_km": 35790.46820754783,
      "perigee_km": 35782.19132272183,
      "latitude_deg": -0.004270542287336392,
      "longitude_deg": 112.88418953431604,
      "height_km": 35786.28875651905,
      "semi_major_axis_km": 42164.466765134835,
      "eccentricity": 9.815e-05,
      "inclination_deg": 0.0433,
      "raan_deg": 44.5147,
      "arg_perigee_deg": 13.5387,
      "mean_anomaly_deg": 96.1993,
      "mean_motion_rev_day": 1.00272731
    },
    {
      "epoch": "2026-04-05T20:07:40.264608Z",
      "apogee_km": 35790.56635356072,
      "perigee_km": 35782.16718440993,
      "latitude_deg": 0.021160673274961187,
      "longitude_deg": 112.87174476849201,
      "height_km": 35789.98451959255,
      "semi_major_axis_km": 42164.50376898533,
      "eccentricity": 9.96e-05,
      "inclination_deg": 0.0436,
      "raan_deg": 44.7122,
      "arg_perigee_deg": 13.8091,
      "mean_anomaly_deg": 190.4034,
      "mean_motion_rev_day": 1.00272599
    },
    {
      "epoch": "2026-04-06T05:35:38.802336Z",
      "apogee_km": 35790.6777849492,
      "perigee_km": 35782.18078155179,
      "latitude_deg": -0.02145128740308717,
      "longitude_deg": 112.86886972094257,
      "height_km": 35782.16034612723,
      "semi_major_axis_km": 42164.5662832505,
      "eccentricity": 0.00010076,
      "inclination_deg": 0.0436,
      "raan_deg": 45.1846,
      "arg_perigee_deg": 14.1542,
      "mean_anomaly_deg": 331.9694,
      "mean_motion_rev_day": 1.00272376
    },
    {
      "epoch": "2026-04-07T19:40:38.621280Z",
      "apogee_km": 35791.422615040836,
      "perigee_km": 35781.92709941059,
      "latitude_deg": 0.0039306206588368975,
      "longitude_deg": 112.87467262575831,
      "height_km": 35790.9086974181,
      "semi_major_axis_km": 42164.811857225715,
      "eccentricity": 0.0001126,
      "inclination_deg": 0.0446,
      "raan_deg": 46.5659,
      "arg_perigee_deg": 19.6943,
      "mean_anomaly_deg": 177.8624,
      "mean_motion_rev_day": 1.002715
    },
    {
      "epoch": "2026-04-08T13:09:29.634624Z",
      "apogee_km": 35791.61121414673,
      "perigee_km": 35781.9689386229,
      "latitude_deg": 0.02601044674692734,
      "longitude_deg": 112.88539321604559,
      "height_km": 35785.378934727756,
      "semi_major_axis_km": 42164.92707638482,
      "eccentricity": 0.00011434,
      "inclination_deg": 0.0452,
      "raan_deg": 47.1112,
      "arg_perigee_deg": 20.9294,
      "mean_anomaly_deg": 79.0111,
      "mean_motion_rev_day": 1.00271089
    },
    {
      "epoch": "2026-04-09T14:10:22.821024Z",
      "apogee_km": 35791.833396200724,
      "perigee_km": 35782.09325802516,
      "latitude_deg": 0.027924731956581565,
      "longitude_deg": 112.88179323789596,
      "height_km": 35786.73257381666,
      "semi_major_axis_km": 42165.100327112945,
      "eccentricity": 0.0001155,
      "inclination_deg": 0.0459,
      "raan_deg": 47.3766,
      "arg_perigee_deg": 22.8268,
      "mean_anomaly_deg": 93.0938,
      "mean_motion_rev_day": 1.00270471
    },
    {
      "epoch": "2026-04-10T11:21:48.697056Z",
      "apogee_km": 35791.93161019849,
      "perigee_km": 35782.56246186567,
      "latitude_deg": 0.022898555477656877,
      "longitude_deg": 112.8707753446681,
      "height_km": 35783.79255898241,
      "semi_major_axis_km": 42165.38403603208,
      "eccentricity": 0.0001111,
      "inclination_deg": 0.0474,
      "raan_deg": 47.2947,
      "arg_perigee_deg": 23.9095,
      "mean_anomaly_deg": 50.814,
      "mean_motion_rev_day": 1.00269459
    },
    {
      "epoch": "2026-04-11T20:49:57.926784Z",
      "apogee_km": 35792.21990646938,
      "perigee_km": 35782.800100928755,
      "latitude_deg": -0.0016997194507632595,
      "longitude_deg": 112.84282087913896,
      "height_km": 35791.596866980566,
      "semi_major_axis_km": 42165.64700369907,
      "eccentricity": 0.0001117,
      "inclination_deg": 0.048,
      "raan_deg": 48.1528,
      "arg_perigee_deg": 25.3143,
      "mean_anomaly_deg": 191.9503,
      "mean_motion_rev_day": 1.00268521
    }
  ]
}